ONEWEB-0311             
1 49097U 21075Y   23059.22116268  .00000072  00000+0  15098-3 0  9995
2 49097  87.9075 245.2627 0002098  87.8132 272.3240 13.17880190 75946
ONEWEB-0311             
1 49097U 21075Y   23059.52485426  .00000064  00000+0  13048-3 0  9997
2 49097  87.9076 245.2021 0002093  87.6528 272.4843 13.17880110 74982
ONEWEB-0311             
1 49097U 21075Y   23059.90446864  .00000059  00000+0  11794-3 0  9992
2 49097  87.9076 245.1265 0002107  87.6375 272.4998 13.17880128 75034
ONEWEB-0311             
1 49097U 21075Y   23060.43592801  .00000099  00000+0  21998-3 0  9996
2 49097  87.9076 245.0206 0002094  87.4434 272.6937 13.17880928 76109
ONEWEB-0311             
1 49097U 21075Y   23060.89146618 -.00000027  00000+0 -10286-3 0  9998
2 49097  87.9076 244.9298 0002072  87.1813 272.9556 13.17879857 75166
ONEWEB-0311             
1 49097U 21075Y   23061.80254002  .00000037  00000+0  62137-4 0  9999
2 49097  87.9076 244.7483 0002049  86.4248 273.7117 13.17880263 75286
ONEWEB-0311             
1 49097U 21075Y   23062.48584568  .00000061  00000+0  12301-3 0  9991
2 49097  87.9076 244.6121 0002018  85.4335 274.7027 13.17880093 75378
ONEWEB-0311             
1 49097U 21075Y   23062.48584568  .00000061  00000+0  12301-3 0  9991
2 49097  87.9076 244.6121 0002018  85.4335 274.7027 13.17880093 76379
ONEWEB-0311             
1 49097U 21075Y   23062.86545931  .00000045  00000+0  82676-4 0  9999
2 49097  87.9077 244.5365 0002013  85.4817 274.6544 13.17880899 75421
